[{"OBJECT_NAME":"STARLINK-30953","OBJECT_ID":"2023-186U","EPOCH":"2026-03-08T23:49:57.390240","MEAN_MOTION":15.27577627,"ECCENTRICITY":8.588e-5,"INCLINATION":42.9984,"RA_OF_ASC_NODE":271.4328,"ARG_OF_PERICENTER":255.1282,"MEAN_ANOMALY":104.9475,"EPHEMERIS_TYPE":0,"CLASSIFICATION_TYPE":"U","NORAD_CAT_ID":58491,"ELEMENT_SET_NO":999,"REV_AT_EPOCH":12778,"BSTAR":-6.0877705e-5,"MEAN_MOTION_DOT":-1.936e-5,"MEAN_MOTION_DDOT":0},{"OBJECT_NAME":"OBJECT H","OBJECT_ID":"2025-155H","EPOCH":"2026-03-09T22:09:58.611456","MEAN_MOTION":15.27590961,"ECCENTRICITY":0.00081993,"INCLINATION":97.4482,"RA_OF_ASC_NODE":37.3122,"ARG_OF_PERICENTER":152.0629,"MEAN_ANOMALY":208.1051,"EPHEMERIS_TYPE":0,"CLASSIFICATION_TYPE":"U","NORAD_CAT_ID":64883,"ELEMENT_SET_NO":999,"REV_AT_EPOCH":6559,"BSTAR":0.00050403256,"MEAN_MOTION_DOT":0.00013547,"MEAN_MOTION_DDOT":0}]
